{
    "links": {
        "self": "http://www.neowsapp.com/rest/v1/neo/3789433?api_key=iIulBulltgU6a56xZRHN4H3l9WmuAYTsLGpBGhQ2"
    },
    "id": "3789433",
    "neo_reference_id": "3789433",
    "name": "(2017 UA52)",
    "designation": "2017 UA52",
    "nasa_jpl_url": "http://ssd.jpl.nasa.gov/sbdb.cgi?sstr=3789433",
    "absolute_magnitude_h": 28.516,
    "estimated_diameter": {
        "kilometers": {
            "estimated_diameter_min": 0.0052644739,
            "estimated_diameter_max": 0.0117717215
        },
        "meters": {
            "estimated_diameter_min": 5.2644738964,
            "estimated_diameter_max": 11.7717214982
        },
        "miles": {
            "estimated_diameter_min": 0.0032711914,
            "estimated_diameter_max": 0.0073146064
        },
        "feet": {
            "estimated_diameter_min": 17.2718965384,
            "estimated_diameter_max": 38.6211347602
        }
    },
    "is_potentially_hazardous_asteroid": false,
    "close_approach_data": [
        {
            "close_approach_date": "2017-10-20",
            "close_approach_date_full": "2017-Oct-20 19:27",
            "epoch_date_close_approach": 1508527620000,
            "relative_velocity": {
                "kilometers_per_second": "9.5100711886",
                "kilometers_per_hour": "34236.2562789575",
                "miles_per_hour": "21273.0782417778"
            },
            "miss_distance": {
                "astronomical": "0.0002874855",
                "lunar": "0.1118318595",
                "kilometers": "43007.218455885",
                "miles": "26723.446365813"
            },
            "orbiting_body": "Moon"
        },
        {
            "close_approach_date": "2017-10-21",
            "close_approach_date_full": "2017-Oct-21 06:25",
            "epoch_date_close_approach": 1508567100000,
            "relative_velocity": {
                "kilometers_per_second": "9.2525243459",
                "kilometers_per_hour": "33309.0876451901",
                "miles_per_hour": "20696.9717093127"
            },
            "miss_distance": {
                "astronomical": "0.0013219136",
                "lunar": "0.5142243904",
                "kilometers": "197755.458884032",
                "miles": "122879.5441503616"
            },
            "orbiting_body": "Earth"
        }
    ],
    "orbital_data": {
        "orbit_id": "1",
        "orbit_determination_date": "2017-11-18 06:21:31",
        "first_observation_date": "2017-10-25",
        "last_observation_date": "2017-10-26",
        "data_arc_in_days": 1,
        "observations_used": 26,
        "orbit_uncertainty": "9",
        "minimum_orbit_intersection": ".00101084",
        "jupiter_tisserand_invariant": "4.450",
        "epoch_osculation": "2458052.5",
        "eccentricity": ".3868516359720188",
        "semi_major_axis": "1.501537527573009",
        "inclination": "6.204820351278618",
        "ascending_node_longitude": "207.4363075103979",
        "orbital_period": "672.0517451815534",
        "perihelion_distance": ".9206652785580101",
        "perihelion_argument": "137.5655669514419",
        "aphelion_distance": "2.082409776588008",
        "perihelion_time": "2458013.378600323399",
        "mean_anomaly": "20.95627901356268",
        "mean_motion": ".5356730379485091",
        "equinox": "J2000",
        "orbit_class": {
            "orbit_class_type": "APO",
            "orbit_class_description": "Near-Earth asteroid orbits which cross the Earth’s orbit similar to that of 1862 Apollo",
            "orbit_class_range": "a (semi-major axis) > 1.0 AU; q (perihelion) < 1.017 AU"
        }
    },
    "is_sentry_object": false
}